[{"OBJECT_NAME":"QB50P1","OBJECT_ID":"2014-033R","EPOCH":"2026-03-05T05:21:13.890816","MEAN_MOTION":15.16402053,"ECCENTRICITY":0.00078423,"INCLINATION":98.1001,"RA_OF_ASC_NODE":68.2039,"ARG_OF_PERICENTER":211.557,"MEAN_ANOMALY":148.5192,"EPHEMERIS_TYPE":0,"CLASSIFICATION_TYPE":"U","NORAD_CAT_ID":40025,"ELEMENT_SET_NO":999,"REV_AT_EPOCH":63726,"BSTAR":0.00068278635,"MEAN_MOTION_DOT":0.00013213,"MEAN_MOTION_DDOT":0},{"OBJECT_NAME":"DTUSAT-2","OBJECT_ID":"2014-033W","EPOCH":"2026-03-05T05:30:48.824064","MEAN_MOTION":15.13433114,"ECCENTRICITY":0.00065422,"INCLINATION":98.0843,"RA_OF_ASC_NODE":55.4949,"ARG_OF_PERICENTER":218.6043,"MEAN_ANOMALY":141.4719,"EPHEMERIS_TYPE":0,"CLASSIFICATION_TYPE":"U","NORAD_CAT_ID":40030,"ELEMENT_SET_NO":999,"REV_AT_EPOCH":63695,"BSTAR":0.00059867214,"MEAN_MOTION_DOT":0.00010637,"MEAN_MOTION_DDOT":0},{"OBJECT_NAME":"QB50P2","OBJECT_ID":"2014-033Y","EPOCH":"2026-03-05T00:51:30.724128","MEAN_MOTION":15.13563218,"ECCENTRICITY":0.00081511,"INCLINATION":98.0731,"RA_OF_ASC_NODE":54.5726,"ARG_OF_PERICENTER":155.9782,"MEAN_ANOMALY":204.183,"EPHEMERIS_TYPE":0,"CLASSIFICATION_TYPE":"U","NORAD_CAT_ID":40032,"ELEMENT_SET_NO":999,"REV_AT_EPOCH":63690,"BSTAR":0.00063473486,"MEAN_MOTION_DOT":0.00011328,"MEAN_MOTION_DDOT":0},{"OBJECT_NAME":"PERSEUS-M1","OBJECT_ID":"2014-033AF","EPOCH":"2026-03-05T06:10:32.600928","MEAN_MOTION":14.95227142,"ECCENTRICITY":0.00099199,"INCLINATION":97.9557,"RA_OF_ASC_NODE":6.7755,"ARG_OF_PERICENTER":285.3367,"MEAN_ANOMALY":74.6756,"EPHEMERIS_TYPE":0,"CLASSIFICATION_TYPE":"U","NORAD_CAT_ID":40039,"ELEMENT_SET_NO":999,"REV_AT_EPOCH":63510,"BSTAR":0.00036428676,"MEAN_MOTION_DOT":3.95e-5,"MEAN_MOTION_DDOT":0},{"OBJECT_NAME":"POLYITAN-1","OBJECT_ID":"2014-033AJ","EPOCH":"2026-03-05T06:58:49.088352","MEAN_MOTION":15.2932086,"ECCENTRICITY":0.00089908,"INCLINATION":98.1047,"RA_OF_ASC_NODE":80.9818,"ARG_OF_PERICENTER":140.814,"MEAN_ANOMALY":219.3751,"EPHEMERIS_TYPE":0,"CLASSIFICATION_TYPE":"U","NORAD_CAT_ID":40042,"ELEMENT_SET_NO":999,"REV_AT_EPOCH":63769,"BSTAR":0.00083407194,"MEAN_MOTION_DOT":0.00023714,"MEAN_MOTION_DDOT":0},{"OBJECT_NAME":"TIGRISAT","OBJECT_ID":"2014-033AK","EPOCH":"2026-03-04T11:13:55.506720","MEAN_MOTION":14.84695897,"ECCENTRICITY":0.00506946,"INCLINATION":97.7659,"RA_OF_ASC_NODE":215.9997,"ARG_OF_PERICENTER":59.1928,"MEAN_ANOMALY":301.4262,"EPHEMERIS_TYPE":0,"CLASSIFICATION_TYPE":"U","NORAD_CAT_ID":40043,"ELEMENT_SET_NO":999,"REV_AT_EPOCH":63008,"BSTAR":0.00042734623,"MEAN_MOTION_DOT":3.648e-5,"MEAN_MOTION_DDOT":0},{"OBJECT_NAME":"AISAT","OBJECT_ID":"2014-034B","EPOCH":"2026-03-05T05:41:25.728576","MEAN_MOTION":15.06566487,"ECCENTRICITY":0.00085075,"INCLINATION":98.2455,"RA_OF_ASC_NODE":329.2211,"ARG_OF_PERICENTER":203.6515,"MEAN_ANOMALY":156.432,"EPHEMERIS_TYPE":0,"CLASSIFICATION_TYPE":"U","NORAD_CAT_ID":40054,"ELEMENT_SET_NO":999,"REV_AT_EPOCH":63154,"BSTAR":0.00097532833,"MEAN_MOTION_DOT":0.00014395,"MEAN_MOTION_DDOT":0},{"OBJECT_NAME":"CANX-4","OBJECT_ID":"2014-034C","EPOCH":"2026-03-05T04:25:38.092224","MEAN_MOTION":14.81048424,"ECCENTRICITY":0.00126386,"INCLINATION":98.3284,"RA_OF_ASC_NODE":295.5991,"ARG_OF_PERICENTER":351.2831,"MEAN_ANOMALY":8.8158,"EPHEMERIS_TYPE":0,"CLASSIFICATION_TYPE":"U","NORAD_CAT_ID":40055,"ELEMENT_SET_NO":999,"REV_AT_EPOCH":62913,"BSTAR":0.00021590628,"MEAN_MOTION_DOT":1.619e-5,"MEAN_MOTION_DDOT":0},{"OBJECT_NAME":"CANX-5","OBJECT_ID":"2014-034D","EPOCH":"2026-03-05T04:25:05.588544","MEAN_MOTION":14.81065089,"ECCENTRICITY":0.00126396,"INCLINATION":98.3285,"RA_OF_ASC_NODE":295.6362,"ARG_OF_PERICENTER":351.483,"MEAN_ANOMALY":8.6165,"EPHEMERIS_TYPE":0,"CLASSIFICATION_TYPE":"U","NORAD_CAT_ID":40056,"ELEMENT_SET_NO":999,"REV_AT_EPOCH":61994,"BSTAR":0.00021571331,"MEAN_MOTION_DOT":1.618e-5,"MEAN_MOTION_DDOT":0},{"OBJECT_NAME":"VELOX-I","OBJECT_ID":"2014-034E","EPOCH":"2026-03-05T06:43:20.412768","MEAN_MOTION":14.96805671,"ECCENTRICITY":0.00055824,"INCLINATION":98.265,"RA_OF_ASC_NODE":323.4291,"ARG_OF_PERICENTER":255.8743,"MEAN_ANOMALY":104.1857,"EPHEMERIS_TYPE":0,"CLASSIFICATION_TYPE":"U","NORAD_CAT_ID":40057,"ELEMENT_SET_NO":999,"REV_AT_EPOCH":63105,"BSTAR":0.0008489757,"MEAN_MOTION_DOT":9.668e-5,"MEAN_MOTION_DDOT":0},{"OBJECT_NAME":"GONETS-M 10","OBJECT_ID":"2014-036C","EPOCH":"2026-03-05T07:32:48.053184","MEAN_MOTION":12.42941864,"ECCENTRICITY":0.00224517,"INCLINATION":82.5156,"RA_OF_ASC_NODE":12.1845,"ARG_OF_PERICENTER":11.4819,"MEAN_ANOMALY":348.6769,"EPHEMERIS_TYPE":0,"CLASSIFICATION_TYPE":"U","NORAD_CAT_ID":40063,"ELEMENT_SET_NO":999,"REV_AT_EPOCH":52934,"BSTAR":-0.00086705048,"MEAN_MOTION_DOT":-1.1e-6,"MEAN_MOTION_DDOT":0},{"OBJECT_NAME":"METEOR-M 2","OBJECT_ID":"2014-037A","EPOCH":"2026-03-05T05:58:07.043232","MEAN_MOTION":14.21427262,"ECCENTRICITY":0.00056561,"INCLINATION":98.5017,"RA_OF_ASC_NODE":43.7237,"ARG_OF_PERICENTER":351.1559,"MEAN_ANOMALY":8.9518,"EPHEMERIS_TYPE":0,"CLASSIFICATION_TYPE":"U","NORAD_CAT_ID":40069,"ELEMENT_SET_NO":999,"REV_AT_EPOCH":60455,"BSTAR":0.00017373941,"MEAN_MOTION_DOT":3.38e-6,"MEAN_MOTION_DDOT":0},{"OBJECT_NAME":"DX1","OBJECT_ID":"2014-037C","EPOCH":"2026-03-05T07:48:34.722432","MEAN_MOTION":14.89601799,"ECCENTRICITY":0.00057953,"INCLINATION":98.376,"RA_OF_ASC_NODE":19.8279,"ARG_OF_PERICENTER":248.7814,"MEAN_ANOMALY":111.2783,"EPHEMERIS_TYPE":0,"CLASSIFICATION_TYPE":"U","NORAD_CAT_ID":40071,"ELEMENT_SET_NO":999,"REV_AT_EPOCH":63064,"BSTAR":0.00051181833,"MEAN_MOTION_DOT":4.828e-5,"MEAN_MOTION_DDOT":0},{"OBJECT_NAME":"UKUBE-1","OBJECT_ID":"2014-037F","EPOCH":"2026-03-04T22:01:42.047328","MEAN_MOTION":15.11664851,"ECCENTRICITY":0.00027523,"INCLINATION":98.4229,"RA_OF_ASC_NODE":56.3944,"ARG_OF_PERICENTER":116.7674,"MEAN_ANOMALY":243.3835,"EPHEMERIS_TYPE":0,"CLASSIFICATION_TYPE":"U","NORAD_CAT_ID":40074,"ELEMENT_SET_NO":999,"REV_AT_EPOCH":63279,"BSTAR":0.00079920005,"MEAN_MOTION_DOT":0.00013536,"MEAN_MOTION_DDOT":0},{"OBJECT_NAME":"GAOFEN-2","OBJECT_ID":"2014-049A","EPOCH":"2026-03-05T07:41:39.999840","MEAN_MOTION":14.80761974,"ECCENTRICITY":0.00067371,"INCLINATION":98.0235,"RA_OF_ASC_NODE":128.581,"ARG_OF_PERICENTER":200.3114,"MEAN_ANOMALY":159.7831,"EPHEMERIS_TYPE":0,"CLASSIFICATION_TYPE":"U","NORAD_CAT_ID":40118,"ELEMENT_SET_NO":999,"REV_AT_EPOCH":62386,"BSTAR":9.0182963e-5,"MEAN_MOTION_DOT":6.41e-6,"MEAN_MOTION_DDOT":0},{"OBJECT_NAME":"BRITE-PL2 (HEWELIUSZ)","OBJECT_ID":"2014-049B","EPOCH":"2026-03-05T06:04:37.648992","MEAN_MOTION":14.94153983,"ECCENTRICITY":0.00155779,"INCLINATION":97.8983,"RA_OF_ASC_NODE":175.558,"ARG_OF_PERICENTER":94.9848,"MEAN_ANOMALY":265.315,"EPHEMERIS_TYPE":0,"CLASSIFICATION_TYPE":"U","NORAD_CAT_ID":40119,"ELEMENT_SET_NO":999,"REV_AT_EPOCH":62592,"BSTAR":0.00037386319,"MEAN_MOTION_DOT":3.951e-5,"MEAN_MOTION_DDOT":0},{"OBJECT_NAME":"CBERS 4","OBJECT_ID":"2014-079A","EPOCH":"2026-03-05T07:43:16.326336","MEAN_MOTION":14.35411955,"ECCENTRICITY":7.673e-5,"INCLINATION":98.3492,"RA_OF_ASC_NODE":124.4744,"ARG_OF_PERICENTER":56.5819,"MEAN_ANOMALY":303.544,"EPHEMERIS_TYPE":0,"CLASSIFICATION_TYPE":"U","NORAD_CAT_ID":40336,"ELEMENT_SET_NO":999,"REV_AT_EPOCH":58905,"BSTAR":0.0001031736,"MEAN_MOTION_DOT":2.54e-6,"MEAN_MOTION_DDOT":0},{"OBJECT_NAME":"SMAP","OBJECT_ID":"2015-003A","EPOCH":"2026-03-05T06:50:21.783840","MEAN_MOTION":14.63332572,"ECCENTRICITY":0.0001279,"INCLINATION":98.1311,"RA_OF_ASC_NODE":72.8352,"ARG_OF_PERICENTER":112.6442,"MEAN_ANOMALY":247.4895,"EPHEMERIS_TYPE":0,"CLASSIFICATION_TYPE":"U","NORAD_CAT_ID":40376,"ELEMENT_SET_NO":999,"REV_AT_EPOCH":59242,"BSTAR":0.00016537657,"MEAN_MOTION_DOT":8.07e-6,"MEAN_MOTION_DDOT":0},{"OBJECT_NAME":"GONETS-M 11","OBJECT_ID":"2015-020A","EPOCH":"2026-03-05T07:51:02.933856","MEAN_MOTION":12.42872446,"ECCENTRICITY":0.00152724,"INCLINATION":82.4808,"RA_OF_ASC_NODE":95.7154,"ARG_OF_PERICENTER":225.37,"MEAN_ANOMALY":134.6136,"EPHEMERIS_TYPE":0,"CLASSIFICATION_TYPE":"U","NORAD_CAT_ID":40552,"ELEMENT_SET_NO":999,"REV_AT_EPOCH":49583,"BSTAR":0.00025065504,"MEAN_MOTION_DOT":4.5e-7,"MEAN_MOTION_DDOT":0},{"OBJECT_NAME":"GONETS-M 12","OBJECT_ID":"2015-020B","EPOCH":"2026-03-05T07:14:40.424064","MEAN_MOTION":12.42887955,"ECCENTRICITY":0.00145487,"INCLINATION":82.4843,"RA_OF_ASC_NODE":96.8281,"ARG_OF_PERICENTER":209.0381,"MEAN_ANOMALY":150.9891,"EPHEMERIS_TYPE":0,"CLASSIFICATION_TYPE":"U","NORAD_CAT_ID":40553,"ELEMENT_SET_NO":999,"REV_AT_EPOCH":49582,"BSTAR":-0.00041962085,"MEAN_MOTION_DOT":-4.8e-7,"MEAN_MOTION_DDOT":0},{"OBJECT_NAME":"GONETS-M 13","OBJECT_ID":"2015-020C","EPOCH":"2026-03-05T06:33:58.014432","MEAN_MOTION":12.42866793,"ECCENTRICITY":0.00134649,"INCLINATION":82.4803,"RA_OF_ASC_NODE":95.4907,"ARG_OF_PERICENTER":193.0268,"MEAN_ANOMALY":167.0465,"EPHEMERIS_TYPE":0,"CLASSIFICATION_TYPE":"U","NORAD_CAT_ID":40554,"ELEMENT_SET_NO":999,"REV_AT_EPOCH":49579,"BSTAR":-0.00013486196,"MEAN_MOTION_DOT":-9.0e-8,"MEAN_MOTION_DDOT":0},{"OBJECT_NAME":"DMC3-FM1","OBJECT_ID":"2015-032A","EPOCH":"2026-03-05T06:47:30.948576","MEAN_MOTION":14.8560472,"ECCENTRICITY":0.00067822,"INCLINATION":97.6622,"RA_OF_ASC_NODE":293.444,"ARG_OF_PERICENTER":45.209,"MEAN_ANOMALY":314.9676,"EPHEMERIS_TYPE":0,"CLASSIFICATION_TYPE":"U","NORAD_CAT_ID":40715,"ELEMENT_SET_NO":999,"REV_AT_EPOCH":57448,"BSTAR":8.372003e-5,"MEAN_MOTION_DOT":6.73e-6,"MEAN_MOTION_DDOT":0},{"OBJECT_NAME":"DMC3-FM2","OBJECT_ID":"2015-032B","EPOCH":"2026-03-05T05:42:42.308352","MEAN_MOTION":14.85606516,"ECCENTRICITY":0.00072899,"INCLINATION":97.6676,"RA_OF_ASC_NODE":294.9027,"ARG_OF_PERICENTER":49.1305,"MEAN_ANOMALY":311.0541,"EPHEMERIS_TYPE":0,"CLASSIFICATION_TYPE":"U","NORAD_CAT_ID":40716,"ELEMENT_SET_NO":999,"REV_AT_EPOCH":57447,"BSTAR":6.9570565e-5,"MEAN_MOTION_DOT":5.51e-6,"MEAN_MOTION_DDOT":0}]
